NOAA 9                  
1 15427U 84123A   01265.45825797  .00000637  00000-0  35376-3 0   644
2 15427  98.7343 335.9129 0014355 245.1907 114.7776 14.14578717865448
NOAA 10                 
1 16969U 86073A   01265.81119514  .00000691  00000-0  30547-3 0   426
2 16969  98.6848 252.3374 0013132 139.9058 220.3093 14.26378294780647
NOAA 11                 
1 19531U 88089A   01265.76581483  .00000421  00000-0  24529-3 0  8764
2 19531  98.9532 337.6465 0011204 217.3466 142.6928 14.13999671670171
NOAA 12                 
1 21263U 91032A   01265.75738853  .00000841  00000-0  38371-3 0  3306
2 21263  98.5795 255.6839 0014020  78.0113 282.2636 14.24122909538058
NOAA 14                 
1 23455U 94089A   01265.77943090  .00000438  00000-0  26135-3 0  9054
2 23455  99.1837 260.7231 0008502 230.3640 129.6781 14.12764408346916
NOAA 15                 
1 25338U 98030A   01265.75829408  .00000482  00000-0  22993-3 0  3679
2 25338  98.5959 290.8447 0011194  17.7424 342.4140 14.23655703174672
NOAA 16                 
1 26536U 00055A   01264.86040242  .00000236  00000-0  15507-3 0  5034
2 26536  98.8330 208.9959 0010029 325.6148  34.2222 14.11242246 51534
GOES 11                 
1 26352U 00022A   01048.43935777 -.00000089  00000-0  00000+0 0  2091
2 26352   0.0671 103.6600 0005317 189.4757 265.8499  1.00262647  2909

